{"zip_codes":[{"zip_code":"80130","distance":9.682,"city":"Littleton","state":"CO"},{"zip_code":"80124","distance":9.748,"city":"Lone Tree","state":"CO"},{"zip_code":"80126","distance":9.158,"city":"Littleton","state":"CO"},{"zip_code":"80129","distance":9.719,"city":"Littleton","state":"CO"},{"zip_code":"80112","distance":7.505,"city":"Englewood","state":"CO"},{"zip_code":"80122","distance":6.429,"city":"Littleton","state":"CO"},{"zip_code":"80160","distance":7.095,"city":"Littleton","state":"CO"},{"zip_code":"80161","distance":7.095,"city":"Littleton","state":"CO"},{"zip_code":"80162","distance":7.095,"city":"Littleton","state":"CO"},{"zip_code":"80163","distance":7.095,"city":"Littleton","state":"CO"},{"zip_code":"80165","distance":7.095,"city":"Littleton","state":"CO"},{"zip_code":"80166","distance":7.095,"city":"Littleton","state":"CO"},{"zip_code":"80120","distance":6.946,"city":"Littleton","state":"CO"},{"zip_code":"80121","distance":4.319,"city":"Littleton","state":"CO"},{"zip_code":"80111","distance":4.808,"city":"Englewood","state":"CO"},{"zip_code":"80123","distance":8.434,"city":"Littleton","state":"CO"},{"zip_code":"80015","distance":8.481,"city":"Aurora","state":"CO"},{"zip_code":"80237","distance":2.57,"city":"Denver","state":"CO"},{"zip_code":"80150","distance":3.927,"city":"Englewood","state":"CO"},{"zip_code":"80151","distance":3.927,"city":"Englewood","state":"CO"},{"zip_code":"80155","distance":3.927,"city":"Englewood","state":"CO"},{"zip_code":"80113","distance":2.702,"city":"Englewood","state":"CO"},{"zip_code":"80110","distance":4.747,"city":"Englewood","state":"CO"},{"zip_code":"80235","distance":8.746,"city":"Denver","state":"CO"},{"zip_code":"80236","distance":6.092,"city":"Denver","state":"CO"},{"zip_code":"80013","distance":8.649,"city":"Aurora","state":"CO"},{"zip_code":"80014","distance":4.812,"city":"Aurora","state":"CO"},{"zip_code":"80227","distance":8.6,"city":"Denver","state":"CO"},{"zip_code":"80222","distance":0,"city":"Denver","state":"CO"},{"zip_code":"80231","distance":2.133,"city":"Denver","state":"CO"},{"zip_code":"80210","distance":1.869,"city":"Denver","state":"CO"},{"zip_code":"80232","distance":8.691,"city":"Denver","state":"CO"},{"zip_code":"80224","distance":1.455,"city":"Denver","state":"CO"},{"zip_code":"80040","distance":6.411,"city":"Aurora","state":"CO"},{"zip_code":"80041","distance":6.411,"city":"Aurora","state":"CO"},{"zip_code":"80042","distance":6.411,"city":"Aurora","state":"CO"},{"zip_code":"80044","distance":6.411,"city":"Aurora","state":"CO"},{"zip_code":"80046","distance":6.411,"city":"Aurora","state":"CO"},{"zip_code":"80047","distance":6.411,"city":"Aurora","state":"CO"},{"zip_code":"80219","distance":5.969,"city":"Denver","state":"CO"},{"zip_code":"80223","distance":4.37,"city":"Denver","state":"CO"},{"zip_code":"80017","distance":7.811,"city":"Aurora","state":"CO"},{"zip_code":"80247","distance":3.229,"city":"Denver","state":"CO"},{"zip_code":"80012","distance":5.206,"city":"Aurora","state":"CO"},{"zip_code":"80246","distance":2.364,"city":"Denver","state":"CO"},{"zip_code":"80209","distance":3.176,"city":"Denver","state":"CO"},{"zip_code":"80226","distance":9.15,"city":"Denver","state":"CO"},{"zip_code":"80230","distance":3.903,"city":"Denver","state":"CO"},{"zip_code":"80206","distance":4.298,"city":"Denver","state":"CO"},{"zip_code":"80218","distance":4.721,"city":"Denver","state":"CO"},{"zip_code":"80203","distance":5.094,"city":"Denver","state":"CO"},{"zip_code":"80220","distance":4.381,"city":"Denver","state":"CO"},{"zip_code":"80204","distance":6.595,"city":"Denver","state":"CO"},{"zip_code":"80011","distance":9.067,"city":"Aurora","state":"CO"},{"zip_code":"80010","distance":5.855,"city":"Aurora","state":"CO"},{"zip_code":"80264","distance":5.8,"city":"Denver","state":"CO"},{"zip_code":"80214","distance":9.005,"city":"Denver","state":"CO"},{"zip_code":"80290","distance":5.927,"city":"Denver","state":"CO"},{"zip_code":"80293","distance":6.151,"city":"Denver","state":"CO"},{"zip_code":"80045","distance":7.144,"city":"Aurora","state":"CO"},{"zip_code":"80294","distance":6.324,"city":"Denver","state":"CO"},{"zip_code":"80202","distance":6.695,"city":"Denver","state":"CO"},{"zip_code":"80205","distance":6.347,"city":"Denver","state":"CO"},{"zip_code":"80201","distance":6.874,"city":"Denver","state":"CO"},{"zip_code":"80208","distance":6.874,"city":"Denver","state":"CO"},{"zip_code":"80217","distance":6.874,"city":"Denver","state":"CO"},{"zip_code":"80225","distance":6.874,"city":"Denver","state":"CO"},{"zip_code":"80243","distance":6.874,"city":"Denver","state":"CO"},{"zip_code":"80244","distance":6.874,"city":"Denver","state":"CO"},{"zip_code":"80248","distance":6.874,"city":"Denver","state":"CO"},{"zip_code":"80250","distance":6.874,"city":"Denver","state":"CO"},{"zip_code":"80251","distance":6.874,"city":"Denver","state":"CO"},{"zip_code":"80252","distance":6.874,"city":"Denver","state":"CO"},{"zip_code":"80256","distance":6.874,"city":"Denver","state":"CO"},{"zip_code":"80257","distance":6.874,"city":"Denver","state":"CO"},{"zip_code":"80259","distance":6.874,"city":"Denver","state":"CO"},{"zip_code":"80261","distance":6.874,"city":"Denver","state":"CO"},{"zip_code":"80262","distance":6.874,"city":"Denver","state":"CO"},{"zip_code":"80263","distance":6.874,"city":"Denver","state":"CO"},{"zip_code":"80265","distance":6.874,"city":"Denver","state":"CO"},{"zip_code":"80266","distance":6.874,"city":"Denver","state":"CO"},{"zip_code":"80271","distance":6.874,"city":"Denver","state":"CO"},{"zip_code":"80273","distance":6.874,"city":"Denver","state":"CO"},{"zip_code":"80274","distance":6.874,"city":"Denver","state":"CO"},{"zip_code":"80279","distance":6.874,"city":"Denver","state":"CO"},{"zip_code":"80280","distance":6.874,"city":"Denver","state":"CO"},{"zip_code":"80281","distance":6.874,"city":"Denver","state":"CO"},{"zip_code":"80291","distance":6.874,"city":"Denver","state":"CO"},{"zip_code":"80295","distance":6.874,"city":"Denver","state":"CO"},{"zip_code":"80299","distance":6.874,"city":"Denver","state":"CO"},{"zip_code":"80207","distance":6.336,"city":"Denver","state":"CO"},{"zip_code":"80211","distance":8.254,"city":"Denver","state":"CO"},{"zip_code":"80238","distance":7.362,"city":"Denver","state":"CO"},{"zip_code":"80212","distance":9.445,"city":"Denver","state":"CO"},{"zip_code":"80239","distance":9.352,"city":"Denver","state":"CO"},{"zip_code":"80216","distance":8.261,"city":"Denver","state":"CO"}]}
